{"type":"FeatureCollection","features":[{"type":"Feature","properties":{"name":"Quebec"},"geometry":{"type":"MultiPolygon","coordinates":[[[[-57.104,51.413],[-57.748,51.472],[-58.021,51.309],[-58.628,51.276],[-58.619,51.153],[-59.003,51.016],[-59.015,50.749],[-59.099,50.879],[-60.134,50.204],[-60.15,50.289],[-60.793,50.262],[-61.721,50.092],[-61.577,50.186],[-62.713,50.315],[-63.395,50.213],[-63.813,50.313],[-65.952,50.289],[-66.09,50.191],[-66.442,50.269],[-66.543,50.208],[-66.459,50.133],[-66.638,50.181],[-67.151,49.807],[-67.386,49.322],[-68.12,49.272],[-68.299,49.196],[-68.19,49.112],[-68.408,49.056],[-68.444,49.192],[-68.642,48.917],[-69.061,48.767],[-69.684,48.138],[-70.373,48.374],[-71.071,48.44],[-69.73,48.109],[-70.226,47.496],[-70.5,47.435],[-70.722,47.101],[-71.299,46.742],[-70.541,47.002],[-69.451,47.979],[-68.823,48.364],[-66.639,49.121],[-65.588,49.261],[-64.942,49.214],[-64.236,48.91],[-64.158,48.756],[-64.558,48.88],[-64.16,48.623],[-64.316,48.419],[-64.719,48.338],[-64.771,48.196],[-65.27,48.013],[-65.893,48.219],[-67.364,47.841],[-67.612,47.997],[-68.373,47.925],[-68.38,47.559],[-69.04,47.297],[-69.047,47.422],[-69.231,47.453],[-69.985,46.691],[-70.047,46.426],[-70.284,46.19],[-70.254,45.899],[-70.72,45.513],[-70.635,45.392],[-70.797,45.425],[-70.877,45.225],[-70.96,45.339],[-71.447,45.236],[-71.506,45.013],[-74.736,44.993],[-74.325,45.201],[-74.479,45.317],[-74.397,45.564],[-74.876,45.642],[-75.847,45.372],[-76.077,45.514],[-76.338,45.456],[-76.666,45.591],[-76.805,45.865],[-77.003,45.79],[-77.555,46.152],[-78.704,46.337],[-79.444,47.111],[-79.576,47.442],[-79.538,50.959],[-79.33,50.758],[-79.538,50.982],[-79.551,51.553],[-79.24,51.635],[-79.275,51.531],[-79.024,51.476],[-78.845,51.164],[-78.888,51.397],[-78.689,51.484],[-79.033,51.776],[-78.837,51.841],[-78.894,51.938],[-78.556,52.236],[-78.406,52.238],[-78.557,52.272],[-78.545,52.515],[-78.763,52.564],[-78.85,52.765],[-78.687,52.88],[-78.983,53.024],[-78.896,53.265],[-79.11,53.502],[-78.916,53.561],[-79.151,53.705],[-78.901,53.815],[-79.136,53.957],[-78.977,54.018],[-79.287,54.082],[-79.049,54.183],[-79.38,54.194],[-79.283,54.249],[-79.461,54.304],[-79.603,54.555],[-79.521,54.587],[-79.761,54.658],[-77.76,55.288],[-76.658,56.061],[-76.519,56.406],[-76.53,57.106],[-76.806,57.669],[-77.444,58.188],[-78.569,58.614],[-78.467,58.702],[-78.571,58.961],[-78.338,58.913],[-78.093,59.215],[-77.685,59.393],[-77.913,59.415],[-77.721,59.54],[-77.774,59.71],[-77.314,59.565],[-77.542,59.689],[-77.294,59.794],[-77.427,59.915],[-76.759,60.159],[-77.631,60.065],[-77.406,60.13],[-77.741,60.424],[-77.413,60.544],[-77.834,60.639],[-77.512,60.836],[-78.191,60.789],[-77.694,61.203],[-77.793,61.454],[-77.475,61.542],[-78.006,61.733],[-78.156,62.278],[-77.418,62.59],[-75.646,62.292],[-75.895,62.159],[-75.322,62.311],[-74.556,62.105],[-74.726,62.245],[-73.679,62.48],[-72.942,62.118],[-72.627,62.116],[-72.604,61.971],[-72.794,61.835],[-72.596,61.806],[-72.596,61.943],[-72.206,61.863],[-72.13,61.799],[-72.225,61.752],[-71.99,61.676],[-72.303,61.567],[-71.98,61.6],[-71.958,61.707],[-71.572,61.606],[-71.888,61.431],[-71.585,61.407],[-71.823,61.373],[-71.578,61.155],[-71.473,61.223],[-70.548,61.008],[-70.146,61.085],[-70.148,60.88],[-69.927,60.808],[-69.659,60.877],[-69.657,61.054],[-69.514,61.069],[-69.369,60.811],[-69.826,60.526],[-69.768,60.312],[-69.606,60.233],[-69.625,60.068],[-71.031,60.062],[-69.563,59.868],[-69.654,59.698],[-69.519,59.653],[-69.748,59.51],[-69.631,59.375],[-69.758,59.32],[-69.413,59.355],[-69.235,59.239],[-69.54,59.166],[-69.344,59.091],[-69.507,59.07],[-69.548,58.808],[-69.671,58.792],[-69.672,58.931],[-69.869,59.053],[-69.798,58.829],[-70.25,58.77],[-69.92,58.774],[-69.813,58.589],[-69.13,58.902],[-68.356,58.774],[-68.348,58.601],[-68.194,58.541],[-68.344,58.127],[-69.369,57.765],[-68.404,58.04],[-68.171,58.49],[-68.003,58.576],[-67.856,58.315],[-68.128,58.074],[-67.732,58.462],[-67.643,58.249],[-67.71,57.923],[-67.481,58.274],[-67.091,58.351],[-66.944,58.502],[-66.619,58.488],[-66.465,58.82],[-65.936,58.605],[-66.066,58.32],[-65.829,58.573],[-66.104,58.774],[-65.798,58.847],[-65.991,58.9],[-65.881,59.011],[-65.678,58.927],[-65.777,59.03],[-65.317,59.041],[-65.715,59.148],[-65.743,59.266],[-65.492,59.255],[-65.571,59.378],[-65.357,59.277],[-65.542,59.49],[-64.983,59.376],[-65.412,59.509],[-65.544,59.736],[-65.334,59.847],[-64.984,59.763],[-65.232,59.886],[-65.067,59.934],[-65.125,60.042],[-64.874,60.206],[-64.955,60.256],[-64.836,60.363],[-64.535,60.303],[-64.854,60.262],[-64.599,60.111],[-64.906,60.048],[-64.654,59.93],[-64.814,59.819],[-64.827,59.531],[-64.34,59.496],[-64.5,59.433],[-64.535,59.197],[-64.291,59.017],[-64.72,59.07],[-64.879,58.927],[-64.3,58.882],[-64.156,58.745],[-63.767,58.874],[-63.481,58.749],[-64.051,58.676],[-64.084,58.556],[-63.819,58.471],[-64.432,58.086],[-64.209,58.033],[-64.058,57.769],[-63.596,57.734],[-63.765,57.574],[-63.71,57.372],[-63.876,57.243],[-63.741,57.233],[-63.871,56.878],[-64.129,56.71],[-63.871,56.439],[-64.17,56.428],[-64.137,56.304],[-63.877,56.217],[-64.02,56.076],[-63.445,56.023],[-63.715,55.859],[-63.448,55.599],[-63.144,55.526],[-63.096,55.35],[-63.519,55.184],[-63.566,55.06],[-63.435,54.974],[-63.669,54.612],[-64.326,54.752],[-65.69,54.713],[-65.858,54.908],[-66.24,54.992],[-66.779,55.339],[-66.605,54.791],[-66.699,54.742],[-67.428,55.071],[-67.214,54.669],[-67.036,54.622],[-67.306,54.504],[-67.601,54.566],[-67.485,54.234],[-67.782,54.064],[-67.431,53.778],[-67.492,53.604],[-67.142,53.542],[-66.91,53.34],[-67.067,52.699],[-66.813,52.664],[-66.668,52.726],[-66.648,52.946],[-66.346,52.974],[-66.27,52.877],[-66.434,52.706],[-66.439,52.201],[-66.336,52.136],[-66.276,52.312],[-65.802,52.043],[-65.567,52.047],[-65.454,52.208],[-65.109,52.171],[-64.588,51.829],[-64.718,51.748],[-64.581,51.558],[-64.264,51.74],[-64.331,51.965],[-64.116,52.151],[-64.173,52.851],[-63.96,52.868],[-63.924,53.077],[-63.693,53.114],[-63.542,52.971],[-63.596,52.771],[-63.378,52.651],[-63.84,52.618],[-64.082,52.471],[-63.655,52.124],[-63.638,52.04],[-63.825,52.071],[-63.751,52.0],[-57.101,52],[-57.104,51.413]]]]}},{"type":"Feature","properties":{"name":"Newfoundland and Labrador"},"geometry":{"type":"MultiPolygon","coordinates":[[[[-64.535,60.303],[-64.384,60.238],[-64.759,60.231],[-64.377,60.161],[-64.827,59.986],[-64.374,60.124],[-64.389,60.014],[-64.589,60.002],[-64.398,59.972],[-64.499,59.892],[-64.174,60.028],[-64.294,59.949],[-64.126,59.896],[-64.255,59.757],[-63.924,59.654],[-64.122,59.52],[-63.997,59.627],[-63.864,59.602],[-63.98,59.505],[-63.722,59.514],[-64.062,59.382],[-63.712,59.365],[-63.806,59.24],[-63.543,59.348],[-63.605,59.21],[-63.38,59.284],[-63.426,59.126],[-64.047,59.019],[-63.125,59.055],[-63.336,59.025],[-63.161,58.926],[-63.325,58.856],[-62.995,58.886],[-62.905,58.79],[-63.041,58.708],[-62.868,58.711],[-63.169,58.503],[-63.524,58.471],[-63.343,58.456],[-63.589,58.301],[-63.265,58.463],[-63.09,58.458],[-63.152,58.374],[-62.556,58.478],[-62.623,58.304],[-62.905,58.21],[-62.583,58.217],[-63.075,58.151],[-63.341,57.98],[-62.453,58.175],[-62.506,58.055],[-62.31,58.029],[-62.673,57.93],[-62.457,57.967],[-62.409,57.866],[-62.342,57.976],[-62.127,57.968],[-62.121,57.801],[-61.883,57.638],[-62.336,57.456],[-62.545,57.501],[-61.891,57.412],[-61.803,57.359],[-62.016,57.243],[-61.358,57.087],[-61.346,56.951],[-61.906,56.795],[-61.689,56.617],[-62.499,56.78],[-62.049,56.833],[-62.586,56.793],[-61.916,56.62],[-62.225,56.609],[-61.655,56.534],[-62.139,56.445],[-61.589,56.287],[-62.076,56.285],[-61.351,56.222],[-61.452,56.057],[-61.237,56.043],[-61.504,56.007],[-60.756,55.849],[-60.938,55.727],[-60.602,55.815],[-60.679,55.564],[-60.503,55.803],[-60.34,55.786],[-60.531,55.597],[-60.306,55.524],[-60.478,55.347],[-60.332,55.487],[-60.197,55.422],[-60.355,55.395],[-60.612,55.167],[-60.348,55.251],[-60.683,54.995],[-60.16,55.286],[-60.194,55.192],[-60.021,55.266],[-60.294,55.019],[-59.779,55.33],[-59.732,55.197],[-59.964,55.11],[-59.427,55.14],[-59.944,54.75],[-59.161,55.237],[-59.384,54.973],[-59.024,55.157],[-58.917,54.851],[-57.347,54.579],[-57.705,54.467],[-57.422,54.454],[-57.661,54.377],[-59.576,54.049],[-58.379,54.23],[-58.61,54.042],[-60.131,53.777],[-60.018,53.704],[-60.134,53.528],[-60.875,53.831],[-60.918,53.709],[-60.048,53.495],[-60.406,53.364],[-60.175,53.343],[-60.398,53.266],[-60.114,53.27],[-59.785,53.477],[-59.893,53.529],[-59.074,53.683],[-58.842,53.943],[-57.789,54.069],[-58.329,54.089],[-58.384,54.19],[-57.428,54.182],[-57.076,53.823],[-57.55,53.592],[-57.317,53.58],[-57.372,53.431],[-57.015,53.711],[-56.465,53.782],[-56.726,53.674],[-56.027,53.575],[-56.263,53.54],[-55.808,53.341],[-55.911,53.304],[-55.746,53.249],[-55.842,53.205],[-55.754,53.135],[-56.167,53.029],[-55.803,52.839],[-56.16,52.794],[-55.739,52.643],[-56.497,52.594],[-55.646,52.437],[-55.783,52.334],[-56.195,52.436],[-55.708,52.293],[-55.792,52.237],[-55.618,52.215],[-55.777,52.209],[-55.69,52.101],[-57.104,51.413],[-57.101,52],[-63.751,52.0],[-63.825,52.071],[-63.638,52.04],[-63.655,52.124],[-64.082,52.471],[-63.84,52.618],[-63.378,52.651],[-63.596,52.771],[-63.542,52.971],[-63.693,53.114],[-63.924,53.077],[-63.96,52.868],[-64.173,52.851],[-64.116,52.151],[-64.331,51.965],[-64.264,51.74],[-64.581,51.558],[-64.718,51.748],[-64.588,51.829],[-65.109,52.171],[-65.454,52.208],[-65.567,52.047],[-65.802,52.043],[-66.276,52.312],[-66.336,52.136],[-66.439,52.201],[-66.434,52.706],[-66.27,52.877],[-66.346,52.974],[-66.648,52.946],[-66.668,52.726],[-66.813,52.664],[-67.067,52.699],[-66.91,53.34],[-67.142,53.542],[-67.492,53.604],[-67.431,53.778],[-67.782,54.064],[-67.485,54.234],[-67.601,54.566],[-67.306,54.504],[-67.036,54.622],[-67.214,54.669],[-67.428,55.071],[-66.699,54.742],[-66.605,54.791],[-66.779,55.339],[-66.24,54.992],[-65.858,54.908],[-65.69,54.713],[-64.326,54.752],[-63.669,54.612],[-63.435,54.974],[-63.566,55.06],[-63.519,55.184],[-63.096,55.35],[-63.144,55.526],[-63.448,55.599],[-63.715,55.859],[-63.445,56.023],[-64.02,56.076],[-63.877,56.217],[-64.137,56.304],[-64.17,56.428],[-63.871,56.439],[-64.129,56.71],[-63.871,56.878],[-63.741,57.233],[-63.876,57.243],[-63.71,57.372],[-63.765,57.574],[-63.596,57.734],[-64.058,57.769],[-64.209,58.033],[-64.432,58.086],[-63.819,58.471],[-64.084,58.556],[-64.051,58.676],[-63.481,58.749],[-63.767,58.874],[-64.156,58.745],[-64.3,58.882],[-64.879,58.927],[-64.72,59.07],[-64.291,59.017],[-64.535,59.197],[-64.5,59.433],[-64.34,59.496],[-64.827,59.531],[-64.814,59.819],[-64.654,59.93],[-64.906,60.048],[-64.599,60.111],[-64.854,60.262],[-64.535,60.303]]],[[[-55.877,50.863],[-56.097,50.717],[-56.155,50.886],[-56.108,50.652],[-56.502,50.383],[-56.463,50.272],[-56.906,49.747],[-56.781,49.727],[-56.858,49.546],[-56.117,50.153],[-56.188,49.924],[-55.962,50.035],[-55.46,49.958],[-56.003,49.748],[-56.172,49.579],[-55.833,49.687],[-56.129,49.426],[-55.828,49.524],[-55.664,49.382],[-55.523,49.487],[-55.567,49.363],[-55.369,49.503],[-55.444,49.355],[-55.293,49.401],[-55.304,49.312],[-55.311,49.53],[-55.137,49.541],[-55.383,49.041],[-55.183,49.12],[-55.288,49.187],[-55.078,49.357],[-55.042,49.224],[-54.848,49.41],[-54.824,49.269],[-54.447,49.543],[-54.487,49.26],[-54.358,49.427],[-54.229,49.361],[-54.042,49.481],[-53.456,49.252],[-53.594,49.036],[-53.835,49.032],[-53.725,49.01],[-53.889,48.983],[-53.813,48.925],[-54.178,48.801],[-53.821,48.829],[-54.022,48.741],[-53.932,48.625],[-53.832,48.749],[-53.6,48.685],[-53.928,48.576],[-53.751,48.508],[-54.164,48.383],[-53.842,48.471],[-53.834,48.372],[-53.647,48.541],[-53.725,48.426],[-53.586,48.525],[-53.609,48.407],[-53.424,48.626],[-53.24,48.523],[-53.073,48.7],[-52.976,48.599],[-53.194,48.349],[-53.352,48.385],[-53.662,48.163],[-53.941,48.231],[-53.912,48.084],[-53.664,48.064],[-53.919,48.022],[-53.606,48.046],[-53.793,47.769],[-53.93,47.849],[-53.76,47.61],[-53.665,47.674],[-53.667,47.522],[-53.545,47.534],[-53.291,47.999],[-52.92,48.169],[-52.833,48.097],[-53.267,47.606],[-53.122,47.413],[-52.779,47.803],[-52.62,47.5],[-53.091,46.643],[-53.362,46.737],[-53.618,46.644],[-53.482,46.897],[-53.648,46.797],[-53.512,46.956],[-53.642,46.984],[-53.499,47.124],[-53.559,47.203],[-53.951,46.854],[-54.19,46.824],[-53.932,47.223],[-53.998,47.31],[-53.804,47.427],[-53.924,47.451],[-54.006,47.819],[-54.263,47.901],[-54.213,47.778],[-54.403,47.451],[-54.613,47.363],[-54.418,47.604],[-54.621,47.39],[-54.831,47.421],[-55.384,46.866],[-55.983,46.952],[-54.697,47.665],[-55.08,47.59],[-54.936,47.782],[-55.119,47.577],[-55.358,47.726],[-55.467,47.619],[-55.407,47.493],[-55.588,47.399],[-55.628,47.541],[-55.926,47.439],[-55.746,47.585],[-56.104,47.464],[-55.628,47.675],[-55.917,47.657],[-55.774,47.957],[-56.055,47.696],[-56.157,47.832],[-56.161,47.634],[-56.299,47.622],[-56.309,47.749],[-56.345,47.608],[-56.757,47.629],[-56.779,47.527],[-57.884,47.697],[-58.354,47.644],[-58.272,47.752],[-58.431,47.633],[-59.304,47.61],[-59.401,47.907],[-58.266,48.517],[-59.229,48.529],[-58.775,48.779],[-58.959,48.614],[-58.709,48.571],[-58.352,49.15],[-58.36,49.057],[-57.892,48.982],[-58.144,49.122],[-57.849,49.182],[-58.091,49.151],[-57.928,49.24],[-58.201,49.24],[-58.223,49.39],[-57.998,49.559],[-57.881,49.428],[-57.696,49.464],[-57.948,49.674],[-57.373,50.591],[-57.151,50.616],[-57.398,50.692],[-56.928,50.916],[-57.089,51.02],[-56.902,51.013],[-56.979,51.05],[-56.689,51.337],[-55.89,51.629],[-55.878,51.492],[-55.62,51.473],[-55.739,51.557],[-55.516,51.602],[-55.404,51.572],[-55.598,51.304],[-56.086,51.368],[-55.965,51.153],[-55.71,51.174],[-55.877,50.863]]]]}},{"type":"Feature","properties":{"name":"British Columbia"},"geometry":{"type":"MultiPolygon","coordinates":[[[[-117.031,49],[-122.76,48.999],[-122.9,49.087],[-123.034,48.999],[-123.146,49.059],[-123.036,49.15],[-123.205,49.124],[-123.127,49.196],[-123.249,49.274],[-122.924,49.288],[-122.853,49.436],[-122.953,49.31],[-123.269,49.331],[-123.16,49.699],[-123.536,49.381],[-124.068,49.634],[-123.941,49.742],[-123.77,49.505],[-123.534,49.701],[-123.797,49.638],[-123.931,49.764],[-123.96,49.982],[-123.744,50.087],[-123.821,50.152],[-123.985,50.216],[-123.809,50.1],[-123.999,50.006],[-123.926,49.826],[-124.038,49.922],[-124.271,49.743],[-124.742,49.958],[-124.83,50.062],[-124.686,49.984],[-124.601,50.239],[-124.715,50.327],[-124.348,50.502],[-124.83,50.309],[-124.995,50.43],[-125.078,50.322],[-125.057,50.477],[-124.858,50.591],[-124.85,50.935],[-124.983,50.804],[-124.904,50.62],[-125.17,50.412],[-125.363,50.541],[-125.573,50.459],[-125.433,50.714],[-125.7,50.428],[-125.816,50.534],[-126.275,50.508],[-125.94,50.629],[-126.274,50.632],[-125.704,50.678],[-125.506,50.933],[-125.634,51.097],[-125.543,50.932],[-125.643,50.784],[-125.937,50.681],[-126.21,50.665],[-126.025,50.793],[-126.181,50.778],[-126.177,50.868],[-126.553,50.835],[-126.17,50.937],[-126.464,50.948],[-126.516,51.071],[-126.661,50.868],[-127.399,50.926],[-127.503,51.097],[-126.712,51.001],[-126.653,51.15],[-127.207,51.056],[-127.79,51.166],[-127.143,51.318],[-127.784,51.333],[-127.501,51.614],[-126.605,51.713],[-126.663,51.797],[-126.693,51.665],[-127.426,51.667],[-127.351,51.864],[-127.644,51.698],[-127.462,51.667],[-127.64,51.459],[-127.878,51.674],[-127.866,51.9],[-127.172,52.312],[-127.005,52.304],[-126.669,51.984],[-126.941,52.304],[-126.737,52.378],[-127.186,52.381],[-127.234,52.517],[-126.989,52.632],[-126.967,52.829],[-127.071,52.884],[-126.981,52.724],[-127.612,52.295],[-127.737,52.35],[-127.858,52.207],[-127.87,52.506],[-127.964,52.322],[-128.057,52.395],[-127.88,52.58],[-128.394,52.291],[-128.025,52.912],[-128.441,52.823],[-128.481,53.142],[-128.859,53.284],[-128.829,53.478],[-128.973,53.553],[-128.795,53.569],[-128.482,53.34],[-128.352,53.476],[-128.132,53.449],[-127.868,53.24],[-128.114,53.488],[-128.518,53.431],[-128.817,53.623],[-128.771,53.796],[-128.471,53.833],[-128.689,53.89],[-128.609,54.031],[-128.932,53.775],[-129.004,53.893],[-128.964,53.782],[-129.232,53.626],[-129.311,53.38],[-130.101,53.947],[-130.047,54.153],[-129.719,53.951],[-129.93,54.183],[-129.47,54.237],[-130.123,54.154],[-130.279,54.209],[-130.25,54.401],[-130.481,54.365],[-130.417,54.63],[-129.96,54.327],[-130.09,54.403],[-129.979,54.517],[-130.123,54.427],[-130.369,54.668],[-129.881,54.615],[-130.202,54.727],[-130.05,54.887],[-130.174,54.847],[-129.622,54.998],[-129.998,55.018],[-129.643,55.434],[-129.471,55.473],[-129.708,55.41],[-129.812,55.629],[-129.783,55.354],[-130.114,54.996],[-130.16,55.086],[-129.944,55.282],[-130.175,55.754],[-130.015,55.909],[-130.089,56.118],[-131.824,56.597],[-131.861,56.8],[-132.103,56.867],[-132.027,57.036],[-132.337,57.088],[-132.227,57.205],[-133.43,58.459],[-134.245,58.857],[-134.461,59.127],[-134.952,59.28],[-135.092,59.427],[-135.014,59.568],[-135.474,59.802],[-136.344,59.603],[-136.234,59.526],[-136.464,59.47],[-136.584,59.163],[-137.465,58.906],[-137.591,59.239],[-138.939,59.998],[-119.983,59.989],[-120.001,53.808],[-119.735,53.635],[-119.932,53.607],[-119.902,53.52],[-119.386,53.362],[-119.266,53.197],[-119.046,53.138],[-118.979,53.237],[-118.76,53.125],[-118.625,52.884],[-118.346,52.743],[-118.223,52.366],[-118.006,52.488],[-117.755,52.404],[-117.76,52.201],[-117.319,52.182],[-116.919,51.709],[-116.659,51.797],[-116.262,51.317],[-115.619,50.969],[-115.647,50.855],[-115.219,50.547],[-115.017,50.575],[-114.659,50.065],[-114.636,49.728],[-114.738,49.609],[-114.576,49.556],[-114.576,49.39],[-114.373,49.204],[-114.035,49.031],[-117.031,49]]],[[[-127.121,49.852],[-127.241,49.962],[-127.09,50.142],[-127.381,50.026],[-127.429,50.18],[-127.907,50.121],[-127.745,50.242],[-127.979,50.342],[-127.924,50.463],[-127.584,50.487],[-127.447,50.373],[-127.57,50.512],[-127.419,50.597],[-127.873,50.624],[-127.596,50.537],[-128.051,50.447],[-128.417,50.769],[-127.91,50.871],[-126.853,50.523],[-125.564,50.364],[-124.866,49.711],[-124.977,49.669],[-124.789,49.464],[-123.958,49.228],[-123.583,48.832],[-123.535,48.53],[-123.401,48.681],[-123.276,48.451],[-123.583,48.301],[-125.114,48.731],[-125.185,48.801],[-124.843,49.016],[-124.808,49.241],[-124.906,49.002],[-125.341,49.036],[-125.484,48.916],[-125.877,49.088],[-125.606,49.21],[-125.753,49.147],[-125.777,49.366],[-126.023,49.268],[-125.905,49.436],[-126.002,49.322],[-126.053,49.446],[-126.578,49.408],[-126.566,49.584],[-126.103,49.679],[-126.438,49.664],[-126.456,49.788],[-126.585,49.701],[-126.646,49.893],[-126.829,49.965],[-127.121,49.852]]]]}},{"type":"Feature","properties":{"name":"Nunavut"},"geometry":{"type":"MultiPolygon","coordinates":[[[[-92.744,69.672],[-92.35,69.701],[-91.803,69.483],[-91.475,69.664],[-91.092,69.632],[-91.554,69.506],[-90.319,69.441],[-90.704,69.454],[-90.582,69.417],[-90.797,69.361],[-90.809,69.253],[-91.447,69.35],[-90.665,69.083],[-90.629,68.916],[-90.436,68.874],[-90.594,68.806],[-90.439,68.823],[-90.564,68.625],[-90.474,68.531],[-90.607,68.446],[-90.207,68.231],[-89.801,68.54],[-89.95,68.608],[-89.714,68.649],[-89.757,68.94],[-89.39,69.219],[-89.114,69.275],[-88.209,68.912],[-87.964,68.761],[-87.788,68.327],[-87.936,68.196],[-88.163,68.231],[-88.194,68.374],[-88.392,68.287],[-88.277,68.112],[-88.371,67.959],[-88.139,67.664],[-87.358,67.262],[-87.51,67.112],[-87.273,67.096],[-87.229,67.226],[-86.963,67.251],[-87.09,67.351],[-86.532,67.347],[-86.525,67.681],[-86.127,68.014],[-85.893,68.051],[-85.646,68.737],[-84.775,68.737],[-85.193,68.862],[-85.006,68.877],[-85.141,68.947],[-84.528,69.017],[-85.316,69.148],[-85.203,69.181],[-85.503,69.314],[-85.345,69.307],[-85.508,69.395],[-85.339,69.439],[-85.543,69.476],[-85.38,69.567],[-85.544,69.638],[-85.439,69.701],[-85.515,69.768],[-85.344,69.813],[-85.562,69.859],[-82.255,69.636],[-82.743,69.577],[-82.501,69.492],[-83.294,69.534],[-82.237,69.401],[-82.392,69.399],[-82.144,69.3],[-82.259,69.234],[-81.332,69.182],[-81.275,69.087],[-82.057,68.874],[-81.383,68.867],[-81.234,68.77],[-81.256,68.643],[-81.971,68.421],[-82.256,68.534],[-82.228,68.455],[-82.648,68.445],[-82.265,68.284],[-82.314,68.147],[-81.989,68.207],[-82.174,68.002],[-82.103,67.907],[-81.239,67.436],[-81.524,66.991],[-81.988,66.959],[-82.157,66.71],[-83.017,66.547],[-83.368,66.349],[-83.977,66.582],[-84.014,66.693],[-83.856,66.681],[-83.908,66.877],[-84.26,66.716],[-84.436,66.818],[-84.24,66.834],[-84.584,66.978],[-84.371,66.971],[-84.927,67.059],[-84.64,66.978],[-85.229,66.873],[-84.602,66.936],[-84.746,66.897],[-84.505,66.823],[-84.691,66.84],[-84.144,66.681],[-84.215,66.589],[-83.679,66.201],[-83.848,66.153],[-84.529,66.404],[-84.636,66.329],[-84.375,66.159],[-85.252,66.273],[-85.48,66.581],[-86.781,66.521],[-86.638,66.315],[-85.898,66.163],[-85.98,66.029],[-86.421,65.902],[-86.555,65.665],[-87.373,65.323],[-87.967,65.333],[-88.83,65.641],[-88.412,65.63],[-89.672,65.939],[-91.497,65.946],[-91.021,65.806],[-91.088,65.921],[-90,65.797],[-89.054,65.329],[-87.051,65.236],[-86.97,65.054],[-87.807,64.514],[-88.113,64.136],[-88.737,63.968],[-89.261,64.161],[-89.024,63.95],[-89.551,64.077],[-89.486,63.942],[-89.818,64.099],[-89.773,64.241],[-90.121,64.128],[-89.915,64.107],[-89.814,63.937],[-90.279,64.004],[-90,63.774],[-90.205,63.612],[-90.624,63.704],[-90.699,63.657],[-90.551,63.601],[-90.931,63.564],[-91.985,63.819],[-92.376,63.777],[-93.773,64.194],[-93.549,64.025],[-93.764,63.988],[-93.65,63.877],[-93.216,63.844],[-93.449,63.926],[-93.365,63.967],[-92.104,63.702],[-92.472,63.523],[-91.776,63.716],[-91.389,63.485],[-90.786,63.396],[-90.975,63.419],[-90.689,63.355],[-90.627,63.059],[-91.356,62.789],[-92.455,62.815],[-91.881,62.619],[-92.053,62.527],[-92.616,62.614],[-92.53,62.443],[-92.823,62.349],[-92.47,62.147],[-93.145,62.337],[-92.79,62.177],[-93.11,62.157],[-92.931,62.104],[-93.162,61.979],[-93.411,62.031],[-93.218,61.952],[-93.388,61.946],[-93.3,61.886],[-93.619,61.949],[-93.492,61.884],[-93.614,61.852],[-93.256,61.742],[-93.469,61.765],[-93.313,61.725],[-93.985,61.456],[-93.819,61.347],[-94.111,61.323],[-93.98,61.096],[-94.349,60.859],[-94.509,60.544],[-94.797,60.497],[-94.614,60.381],[-94.8,60.0],[-102.002,60.0],[-101.984,64.213],[-109.387,64.827],[-110.652,65.5],[-112.499,65.506],[-120.658,68.001],[-120.665,69.551],[-117.154,68.886],[-115.96,68.805],[-116.325,68.962],[-115.593,68.972],[-114.448,68.69],[-113.912,68.389],[-114.023,68.241],[-114.96,68.286],[-114.765,68.186],[-115.237,68.182],[-115.241,68.036],[-115.11,68.012],[-115.507,67.889],[-113.846,67.691],[-111.894,67.679],[-110.14,67.917],[-110.117,68.009],[-109.971,67.958],[-109.982,67.837],[-109.696,67.804],[-109.623,67.741],[-109.726,67.717],[-109.066,67.714],[-108.919,67.536],[-109.002,67.444],[-108.813,67.349],[-108.736,67.603],[-108.62,67.625],[-108.484,67.349],[-108.367,67.445],[-108.015,67.293],[-107.881,67.048],[-108.623,67.15],[-107.222,66.349],[-107.797,66.756],[-107.69,66.768],[-107.764,67.002],[-107.613,66.965],[-107.651,67.076],[-107.485,66.919],[-107.694,66.947],[-107.564,66.834],[-107.409,66.811],[-107.435,66.972],[-107.084,66.821],[-107.404,67.042],[-107.2,67.124],[-107.481,67.181],[-107.722,67.411],[-107.583,67.496],[-108.007,67.707],[-107.942,67.847],[-107.651,67.941],[-107.91,67.989],[-107.891,68.082],[-107.694,68.072],[-107.778,67.987],[-106.756,68.105],[-106.809,68.207],[-106.614,68.248],[-106.445,68.152],[-106.345,68.183],[-106.496,68.226],[-106.448,68.345],[-105.73,68.419],[-105.666,68.639],[-106.551,68.515],[-106.419,68.51],[-106.632,68.462],[-106.481,68.396],[-106.543,68.291],[-106.803,68.414],[-107.259,68.26],[-107.813,68.342],[-107.88,68.259],[-107.603,68.165],[-108.37,68.113],[-108.402,68.294],[-108.819,68.267],[-108.345,68.602],[-106.215,68.941],[-105.475,68.721],[-105.544,68.657],[-105.321,68.474],[-105.533,68.409],[-105.056,68.258],[-104.894,68.349],[-104.952,68.247],[-104.61,68.241],[-104.67,68.139],[-104.5,68.032],[-103.555,68.057],[-103.404,68.164],[-103.366,68.006],[-102.228,67.687],[-101.979,67.788],[-101.41,67.688],[-100.7,67.847],[-98.931,67.696],[-98.354,67.796],[-98.724,67.954],[-98.733,68.07],[-98.585,68.092],[-98.089,67.757],[-97.548,67.596],[-97.059,67.675],[-97.224,67.712],[-97.116,67.783],[-97.24,67.926],[-97.683,68.019],[-98.095,67.833],[-98.581,68.14],[-98.368,68.081],[-98.326,68.171],[-98.715,68.362],[-97.743,68.371],[-98.01,68.498],[-97.852,68.542],[-97.538,68.418],[-97.568,68.496],[-97.283,68.474],[-97.002,68.345],[-97.08,68.259],[-96.681,68.281],[-96.631,68.179],[-96.411,68.316],[-96.789,68.017],[-95.892,68.294],[-96.079,68.15],[-96.185,67.626],[-96.336,67.697],[-96.465,67.478],[-96.097,67.465],[-96.252,67.247],[-96.114,67.213],[-95.566,67.377],[-95.833,67.163],[-95.436,67.194],[-95.35,66.964],[-95.928,66.952],[-95.947,67.072],[-96.111,66.951],[-96.461,67.062],[-95.848,66.753],[-95.82,66.584],[-95.652,66.729],[-95.766,66.684],[-96.086,66.927],[-95.219,66.974],[-95.352,67.148],[-95.163,67.287],[-95.419,67.455],[-95.344,67.555],[-95.704,67.739],[-95.534,67.821],[-95.473,68.061],[-94.722,68.055],[-94.199,68.268],[-94.123,68.417],[-93.376,68.633],[-93.752,68.614],[-93.566,68.849],[-93.909,68.998],[-93.804,69.069],[-94.08,68.847],[-93.81,68.891],[-94.095,68.758],[-94.632,68.75],[-94.599,68.966],[-94.006,69.154],[-94.323,69.15],[-94.303,69.305],[-93.526,69.438],[-93.883,69.25],[-93.837,69.164],[-93.379,69.376],[-93.586,69.364],[-93.439,69.475],[-93.541,69.523],[-94.279,69.44],[-94.629,69.684],[-94.863,69.567],[-96.198,69.86],[-96.098,69.947],[-96.5,70.101],[-96.569,70.269],[-96.243,70.57],[-95.797,70.529],[-96.061,70.617],[-95.818,70.71],[-96.203,70.622],[-96.612,70.794],[-96.37,71.09],[-96.561,71.126],[-96.377,71.149],[-96.504,71.277],[-96.046,71.418],[-95.535,71.291],[-95.589,71.354],[-95.433,71.371],[-95.549,71.428],[-95.377,71.509],[-95.908,71.601],[-95.263,71.724],[-95.227,71.827],[-94.608,71.866],[-95.213,71.843],[-95.217,71.945],[-94.564,71.997],[-94.389,71.924],[-94.648,71.812],[-94.357,71.796],[-94.424,71.661],[-94.194,71.792],[-93.712,71.761],[-93.811,71.646],[-92.974,71.341],[-92.852,70.857],[-93.043,70.864],[-92.159,70.584],[-92.286,70.488],[-91.997,70.391],[-92.086,70.298],[-91.73,70.357],[-91.694,70.197],[-91.511,70.153],[-92.004,70.121],[-92.363,70.24],[-92.277,70.184],[-92.587,70.077],[-91.94,70.02],[-92.744,69.672]]],[[[-61.283,66.617],[-61.448,66.538],[-62.005,66.697],[-62.187,66.627],[-61.789,66.609],[-61.576,66.477],[-61.987,66.41],[-61.555,66.336],[-61.915,66.281],[-62.607,66.443],[-62.316,66.305],[-62.667,66.214],[-62.89,66.333],[-61.96,66.012],[-63.062,66.121],[-62.418,65.971],[-62.288,65.813],[-62.864,65.911],[-62.569,65.757],[-62.848,65.764],[-62.59,65.669],[-62.645,65.587],[-62.959,65.754],[-62.972,65.581],[-63.212,65.641],[-63.488,65.936],[-63.348,65.667],[-63.729,65.676],[-63.32,65.593],[-63.618,65.542],[-63.293,65.429],[-63.656,65.471],[-63.336,65.301],[-63.458,65.239],[-63.317,65.191],[-63.514,65.191],[-63.342,65.141],[-63.547,64.887],[-63.615,64.999],[-63.824,64.985],[-63.655,65.038],[-63.871,65.041],[-63.799,65.182],[-64.121,65.044],[-64.267,65.094],[-64.081,65.199],[-64.381,65.181],[-64.237,65.43],[-64.535,65.097],[-64.911,65.304],[-64.684,65.341],[-64.911,65.34],[-64.413,65.479],[-65.144,65.428],[-64.71,65.652],[-64.994,65.548],[-65.318,65.551],[-65.3,65.631],[-64.791,65.723],[-65.498,65.737],[-65.344,65.917],[-64.735,65.969],[-64.851,66.032],[-64.722,66.217],[-64.356,66.35],[-64.719,66.273],[-64.859,66.106],[-65.916,65.951],[-65.912,66.092],[-65.634,66.172],[-65.476,66.388],[-65.697,66.181],[-66.139,66.131],[-66.254,66.22],[-66.15,66.284],[-66.505,66.209],[-66.471,66.348],[-66.576,66.359],[-66.437,66.413],[-66.768,66.381],[-66.679,66.455],[-66.858,66.537],[-66.725,66.585],[-67.059,66.643],[-66.884,66.566],[-67.106,66.486],[-67.741,66.571],[-67.149,66.444],[-67.406,66.43],[-67.126,66.306],[-67.282,66.275],[-67.993,66.504],[-67.741,66.243],[-67.163,66.035],[-67.312,65.997],[-67.194,65.91],[-67.914,65.899],[-68.031,65.998],[-67.971,66.087],[-68.516,66.299],[-68.481,66.216],[-68.835,66.185],[-68.027,66.075],[-68.2,66.021],[-68.124,65.963],[-68.347,66.038],[-68.192,65.95],[-68.322,65.912],[-68.081,65.834],[-68.204,65.793],[-67.811,65.816],[-67.977,65.706],[-67.867,65.635],[-68.059,65.568],[-67.952,65.568],[-68.026,65.481],[-67.328,65.662],[-67.261,65.53],[-67.451,65.494],[-67.058,65.427],[-67.409,65.333],[-66.929,65.23],[-67.108,65.059],[-66.726,65.18],[-66.915,65.051],[-66.761,65.065],[-66.83,64.941],[-66.698,64.764],[-66.689,65.039],[-66.148,64.869],[-66.34,64.764],[-66.212,64.686],[-66.021,64.85],[-66.037,64.708],[-65.803,64.634],[-65.959,64.878],[-65.664,64.808],[-65.705,64.687],[-65.556,64.723],[-65.726,64.498],[-65.115,64.511],[-65.079,64.421],[-65.261,64.384],[-65.195,64.31],[-65.658,64.303],[-65.251,64.208],[-65.392,64.149],[-65.049,64.072],[-65.222,64.029],[-64.668,64.033],[-64.984,63.814],[-64.508,63.651],[-64.589,63.608],[-64.501,63.424],[-64.635,63.41],[-64.482,63.282],[-64.649,63.238],[-64.942,63.632],[-65.299,63.812],[-64.987,63.602],[-65.123,63.4],[-64.921,63.236],[-65.149,63.286],[-64.784,63.122],[-64.847,62.967],[-64.627,62.9],[-65.274,63.001],[-64.928,62.632],[-65.145,62.566],[-65.354,62.684],[-65.244,62.779],[-65.362,62.775],[-65.254,62.833],[-65.332,62.926],[-65.609,62.821],[-65.729,63.053],[-65.794,62.87],[-65.964,62.931],[-65.833,63.031],[-66.014,62.979],[-66.276,63.134],[-66.098,62.952],[-66.393,62.995],[-66.69,63.281],[-66.651,63.375],[-66.74,63.284],[-66.54,62.994],[-66.768,63.088],[-66.808,63.273],[-66.807,63.161],[-67.024,63.243],[-66.978,63.4],[-67.017,63.281],[-67.18,63.276],[-67.915,63.759],[-67.717,63.364],[-68.273,63.691],[-68.995,63.756],[-68.235,63.198],[-67.918,63.137],[-67.976,63.064],[-67.61,63.094],[-67.77,62.958],[-67.553,63.049],[-67.666,62.919],[-67.395,62.964],[-67.246,62.884],[-67.37,62.854],[-66.913,62.695],[-67.001,62.654],[-66.727,62.669],[-66.509,62.422],[-66.352,62.445],[-66.477,62.336],[-65.933,62.204],[-66.038,62.064],[-66.201,62.113],[-65.955,61.89],[-66.395,61.871],[-67.39,62.151],[-68.548,62.249],[-69.299,62.498],[-69.282,62.622],[-69.442,62.547],[-69.597,62.662],[-69.395,62.763],[-70.255,62.756],[-71.042,62.956],[-70.94,63.027],[-71.152,62.985],[-70.824,63.129],[-70.909,63.171],[-71.244,63.001],[-71.714,63.179],[-71.646,63.259],[-71.77,63.256],[-71.775,63.412],[-72.146,63.446],[-71.635,63.42],[-71.235,63.608],[-71.577,63.582],[-71.534,63.71],[-71.64,63.646],[-71.904,63.81],[-72.004,63.753],[-71.844,63.756],[-71.923,63.645],[-72.205,63.774],[-72.317,63.674],[-72.358,63.761],[-72.092,63.905],[-72.246,63.95],[-72.373,63.779],[-72.526,63.788],[-72.661,63.85],[-72.665,64.081],[-72.733,63.963],[-73.107,64.291],[-73.384,64.272],[-73.261,64.363],[-73.472,64.415],[-73.168,64.577],[-73.309,64.659],[-73.308,64.536],[-73.463,64.502],[-73.431,64.603],[-73.657,64.664],[-73.754,64.535],[-73.929,64.602],[-73.786,64.477],[-74.09,64.329],[-74.127,64.534],[-73.954,64.516],[-74.164,64.571],[-73.999,64.582],[-74.061,64.733],[-74.24,64.58],[-74.418,64.66],[-74.382,64.57],[-74.704,64.736],[-74.479,64.836],[-74.64,64.904],[-74.726,64.771],[-74.985,64.796],[-74.47,64.557],[-74.639,64.538],[-74.501,64.456],[-74.681,64.372],[-75.843,64.608],[-75.632,64.454],[-75.923,64.481],[-75.727,64.367],[-76.706,64.301],[-76.671,64.184],[-77.878,64.374],[-78.183,64.572],[-78.159,64.697],[-78.299,64.705],[-78.074,64.814],[-78.15,64.952],[-77.964,65.047],[-77.329,65.179],[-77.513,65.319],[-77.288,65.368],[-77.422,65.461],[-75.786,65.224],[-75.428,65.048],[-75.668,64.941],[-75.397,64.717],[-75.298,64.726],[-75.344,64.92],[-75.567,64.884],[-75.269,64.951],[-75.187,65.102],[-75.36,65.004],[-75.95,65.318],[-75.187,65.252],[-75.108,65.393],[-74.524,65.333],[-74.106,65.535],[-73.48,65.451],[-73.71,65.762],[-74.466,66.152],[-73.444,66.551],[-72.824,67.029],[-72.369,67.112],[-72.193,67.273],[-72.676,67.694],[-72.613,67.79],[-72.942,67.925],[-72.992,68.234],[-73.496,68.276],[-73.212,68.377],[-73.632,68.247],[-73.949,68.412],[-73.726,68.526],[-73.824,68.617],[-73.754,68.684],[-74.179,68.724],[-73.904,68.528],[-74.366,68.539],[-74.726,68.73],[-74.551,68.831],[-74.984,68.809],[-74.692,68.865],[-75.042,68.903],[-74.643,69.012],[-74.786,69.076],[-75.14,68.885],[-75.479,69.02],[-75.604,68.88],[-76.661,68.699],[-76.522,68.87],[-76.626,69.018],[-75.997,69.003],[-75.606,69.085],[-75.592,69.222],[-76.638,69.547],[-76.188,69.665],[-76.634,69.684],[-76.523,69.652],[-76.707,69.559],[-77.192,69.64],[-76.781,69.749],[-76.909,69.792],[-76.798,69.836],[-77.309,69.831],[-76.975,69.936],[-77.631,69.823],[-77.444,69.789],[-77.616,69.742],[-77.673,70.181],[-78.402,70.212],[-78.54,70.306],[-78.426,70.348],[-79.071,70.47],[-78.88,70.595],[-78.719,70.548],[-79.009,70.68],[-79.158,70.622],[-79.002,70.613],[-79.174,70.428],[-79.589,70.399],[-78.922,70.301],[-78.664,70.004],[-78.796,69.877],[-79.683,69.849],[-79.902,69.976],[-81.728,70.132],[-80.791,69.791],[-80.968,69.714],[-82.993,70.304],[-81.711,69.934],[-82.143,69.781],[-83.067,70.011],[-83.715,69.948],[-85.666,70.105],[-85.852,70.038],[-85.236,69.989],[-85.727,69.991],[-86.552,70.235],[-86.592,70.358],[-86.295,70.473],[-86.391,70.522],[-86.647,70.319],[-86.876,70.326],[-86.739,70.382],[-86.953,70.467],[-87.247,70.383],[-86.986,70.282],[-87.757,70.332],[-87.613,70.282],[-87.866,70.239],[-88.889,70.529],[-89.448,70.902],[-89.195,70.968],[-89.559,71.09],[-88.025,70.931],[-87.003,70.994],[-87.713,71.126],[-87.829,71.262],[-89.9,71.351],[-90.04,71.598],[-89.796,71.76],[-90.119,71.926],[-89.575,72.164],[-89.897,72.189],[-89.908,72.432],[-89.781,72.427],[-89.898,72.435],[-89.754,72.606],[-89.471,72.666],[-89.575,72.785],[-89.246,72.785],[-89.414,72.825],[-89.296,72.919],[-89.361,72.992],[-88.888,73.213],[-89.047,73.247],[-88.619,73.28],[-88.857,73.336],[-87.457,73.76],[-85.239,73.822],[-84.838,73.742],[-85.915,73.366],[-86.741,72.728],[-86.241,72.42],[-86.436,72.27],[-86.421,72.013],[-85.501,71.511],[-84.935,71.418],[-84.833,71.279],[-86.82,70.989],[-84.875,71.173],[-84.876,71.07],[-85.127,71.087],[-84.794,70.927],[-84.801,71.183],[-84.666,71.217],[-84.793,71.278],[-84.763,71.407],[-84.526,71.469],[-84.607,71.649],[-85.28,71.669],[-85.58,71.785],[-85.433,71.806],[-85.56,71.901],[-86.051,72.011],[-85.509,72.068],[-85.397,72.137],[-85.471,72.262],[-84.92,72.233],[-84.185,71.931],[-84.165,72.021],[-84.933,72.284],[-84.442,72.383],[-84.864,72.367],[-84.777,72.458],[-85.127,72.352],[-85.535,72.47],[-85.617,72.546],[-85.476,72.575],[-85.705,72.638],[-85.688,72.894],[-85.283,72.964],[-83.955,72.748],[-85.535,73.022],[-85.407,73.136],[-85.142,73.047],[-85.229,73.123],[-85.148,73.142],[-83.634,72.982],[-85.171,73.211],[-85.134,73.306],[-84.787,73.388],[-84.355,73.223],[-84.656,73.391],[-84.171,73.475],[-83.601,73.297],[-83.652,73.445],[-84.007,73.51],[-82.841,73.733],[-81.573,73.72],[-81.263,73.564],[-81.205,73.267],[-80.596,73.148],[-80.638,72.923],[-80.247,72.731],[-81.379,72.242],[-80.516,72.504],[-80.514,72.38],[-80.969,72.2],[-80.567,72.073],[-81.087,72.047],[-80.793,72.028],[-80.95,71.881],[-80.385,72.048],[-80.487,72.189],[-80.241,72.198],[-80.261,72.295],[-79.674,72.127],[-80.164,72.327],[-79.837,72.499],[-79.596,72.335],[-79.75,72.216],[-79.451,72.195],[-79.544,72.286],[-79.33,72.397],[-78.949,72.273],[-79.233,71.976],[-78.508,71.876],[-78.924,72.015],[-78.854,72.173],[-78.476,72.087],[-78.185,71.817],[-77.904,71.768],[-78.309,71.921],[-78.157,71.968],[-77.759,71.75],[-77.698,71.812],[-78.861,72.235],[-78.604,72.359],[-78.408,72.166],[-78.408,72.326],[-77.665,72.205],[-77.657,72.094],[-77.589,72.181],[-76.997,72.128],[-78.559,72.438],[-78.431,72.587],[-77.614,72.752],[-76.753,72.721],[-76.167,72.586],[-76.108,72.473],[-75.932,72.584],[-75.232,72.501],[-74.947,72.25],[-75.238,72.118],[-76.015,72.087],[-76.411,71.859],[-75.797,72.104],[-75.233,72.084],[-75.606,71.989],[-75.802,71.751],[-76.096,71.697],[-75.88,71.702],[-75.558,71.977],[-75.036,72.126],[-74.244,72.073],[-74.118,71.97],[-74.23,71.823],[-75.39,71.681],[-74.934,71.664],[-75.406,71.512],[-74.632,71.646],[-75.152,71.466],[-74.838,71.522],[-74.926,71.454],[-74.699,71.391],[-75.065,71.181],[-74.638,71.381],[-74.736,71.531],[-74.523,71.662],[-74.109,71.736],[-74.254,71.607],[-74.156,71.532],[-74.216,71.613],[-73.978,71.76],[-73.62,71.716],[-73.989,71.461],[-74.319,71.409],[-74.029,71.438],[-74.235,71.198],[-73.868,71.526],[-73.622,71.583],[-73.635,71.359],[-73.38,71.385],[-73.898,71.057],[-73.35,71.345],[-73.049,71.268],[-73.272,71.221],[-73.451,71.035],[-73.377,70.981],[-72.558,71.66],[-71.444,71.469],[-71.123,71.272],[-71.464,71.062],[-71.911,71.108],[-72.334,70.879],[-72.772,70.816],[-72.164,70.836],[-72.543,70.61],[-72.186,70.766],[-71.186,70.852],[-71.289,70.909],[-71.208,71.005],[-70.836,71.114],[-70.614,71.062],[-70.514,70.921],[-70.747,70.746],[-71.175,70.584],[-71.593,70.607],[-71.961,70.421],[-71.727,70.417],[-71.837,70.29],[-71.507,70.576],[-71.168,70.532],[-71.536,70.02],[-71.211,70.262],[-70.997,70.626],[-69.893,70.883],[-69.771,70.857],[-69.879,70.768],[-70.455,70.628],[-70.478,70.476],[-70.308,70.499],[-70.394,70.612],[-70.027,70.59],[-69.451,70.792],[-68.284,70.541],[-68.459,70.369],[-68.582,70.464],[-68.683,70.329],[-69.668,70.199],[-70.186,70.028],[-69.816,69.985],[-70.451,69.857],[-69.777,69.964],[-69.676,70.14],[-68.683,70.204],[-68.783,70.044],[-69.427,69.82],[-69.806,69.82],[-69.983,69.616],[-69.742,69.804],[-68.64,69.94],[-68.207,70.109],[-68.345,70.188],[-68.056,70.323],[-67.242,69.958],[-67.118,69.726],[-67.996,69.774],[-68.329,69.628],[-70.035,69.537],[-68.668,69.591],[-67.258,69.467],[-66.647,69.204],[-67.676,69.169],[-68.984,69.357],[-69.258,69.27],[-68.077,69.217],[-68.968,69.221],[-68.503,69.199],[-69.076,69.106],[-68.927,69.098],[-69.029,68.971],[-68.506,69.162],[-68.178,69.147],[-67.706,69.016],[-68.556,68.964],[-67.977,68.856],[-68.486,68.89],[-67.771,68.781],[-69.384,68.816],[-68.049,68.682],[-68.902,68.604],[-67.923,68.551],[-67.959,68.396],[-67.864,68.549],[-67.67,68.561],[-67.492,68.527],[-67.628,68.496],[-67.613,68.379],[-67.553,68.489],[-66.664,68.432],[-67.87,68.26],[-67.016,68.319],[-67.599,68.165],[-67.397,68.125],[-67.011,68.295],[-66.766,68.239],[-66.966,68.064],[-66.694,68.143],[-66.735,67.982],[-66.595,68.143],[-66.309,68.127],[-66.461,68.071],[-66.184,68.013],[-66.399,67.869],[-66.747,67.875],[-66.386,67.772],[-65.912,68.159],[-65.854,68.073],[-66.032,67.952],[-65.942,67.88],[-66.009,67.626],[-65.818,67.968],[-65.444,67.992],[-65.614,67.781],[-65.357,67.595],[-65.554,67.788],[-65.407,67.922],[-65.001,68.056],[-64.714,67.982],[-65.067,67.931],[-64.942,67.912],[-65.113,67.858],[-65.008,67.785],[-65.2,67.644],[-64.568,67.82],[-64.364,67.754],[-64.639,67.661],[-64.306,67.734],[-64.04,67.534],[-64.441,67.475],[-63.993,67.449],[-63.908,67.311],[-64.798,67.357],[-64.232,67.293],[-64.783,67.19],[-63.963,67.272],[-64.612,67.132],[-64.697,67.003],[-64.506,67.129],[-63.562,67.237],[-63.454,67.169],[-63.772,66.959],[-63.11,67.33],[-62.971,67.221],[-63.284,67.105],[-63.241,66.962],[-63.822,66.816],[-63.442,66.908],[-63.42,66.699],[-63.348,66.891],[-62.847,66.962],[-62.9,66.637],[-62.743,66.942],[-62.313,66.727],[-62.427,66.921],[-62.054,67.049],[-62.102,66.913],[-61.75,66.948],[-62.008,66.868],[-61.613,66.871],[-61.727,66.824],[-61.283,66.617]]],[[[-67.544,82.962],[-66.369,82.888],[-68.643,82.629],[-65.768,82.843],[-65.164,82.763],[-65.353,82.797],[-65.103,82.848],[-65.308,82.866],[-64.836,82.907],[-64.445,82.762],[-63.389,82.805],[-63.85,82.716],[-62.926,82.576],[-63.37,82.439],[-61.608,82.48],[-61.131,82.377],[-61.193,82.224],[-63.761,81.812],[-64.325,81.825],[-64.118,81.764],[-64.373,81.721],[-65.356,81.761],[-66.039,81.692],[-65.352,81.692],[-65.789,81.632],[-68.157,81.561],[-69.291,81.719],[-68.371,81.554],[-68.857,81.548],[-68.579,81.514],[-66.609,81.513],[-70.206,81.18],[-69.638,81.177],[-69.995,81.099],[-65.725,81.494],[-64.566,81.546],[-64.436,81.479],[-64.735,81.374],[-67.591,80.933],[-69.596,80.361],[-70.284,80.351],[-70.314,80.464],[-70.812,80.563],[-70.371,80.409],[-70.448,80.34],[-69.961,80.256],[-70.179,80.189],[-71.694,80.111],[-72.4,80.219],[-71.896,80.114],[-72.341,80.059],[-70.508,80.1],[-71.416,79.93],[-70.91,79.886],[-71.136,79.785],[-72.267,79.659],[-72.933,79.706],[-73.063,79.799],[-72.902,79.815],[-74.846,79.847],[-73.349,79.766],[-73.126,79.558],[-73.354,79.506],[-74.964,79.513],[-75.059,79.484],[-74.883,79.408],[-75.058,79.374],[-77.143,79.547],[-75.89,79.348],[-76.87,79.349],[-77.14,79.465],[-77.398,79.447],[-77.164,79.325],[-78.051,79.355],[-77.488,79.245],[-74.497,79.225],[-74.827,79.174],[-74.437,79.058],[-74.725,79.023],[-76.098,79.199],[-78.229,79.161],[-76.171,79.076],[-78.891,79.063],[-77.708,79.013],[-78.248,78.77],[-77.712,78.966],[-75.72,78.966],[-76.44,78.839],[-74.911,78.851],[-74.72,78.707],[-74.871,78.638],[-74.633,78.588],[-76.684,78.522],[-75.031,78.331],[-75.614,78.198],[-76.855,78.227],[-75.581,78.116],[-75.923,77.957],[-78.261,77.995],[-78.42,77.899],[-77.959,77.802],[-78.081,77.673],[-77.723,77.599],[-78.777,77.307],[-80.753,77.331],[-81.928,77.686],[-81.671,77.532],[-81.729,77.43],[-81.166,77.337],[-82.194,77.3],[-81.787,77.157],[-81.076,77.283],[-80.116,77.201],[-80.373,77.071],[-79.726,77.24],[-79.255,77.219],[-79.005,77.097],[-79.387,76.927],[-78.722,76.821],[-78.07,77.014],[-77.715,76.821],[-77.769,76.658],[-78.377,76.458],[-78.791,76.572],[-79.273,76.304],[-81.076,76.129],[-80.772,76.419],[-81.208,76.554],[-82.04,76.509],[-82.057,76.609],[-81.786,76.686],[-82.293,76.636],[-82.75,76.819],[-82.081,76.561],[-82.222,76.533],[-82.18,76.417],[-83.1,76.464],[-83.38,76.759],[-83.523,76.701],[-83.246,76.573],[-83.224,76.411],[-83.711,76.433],[-84.284,76.658],[-84.237,76.444],[-85.051,76.514],[-84.382,76.312],[-85.195,76.281],[-86.372,76.386],[-86.419,76.469],[-86.212,76.535],[-86.63,76.635],[-86.301,76.525],[-86.656,76.467],[-86.717,76.346],[-87.423,76.457],[-87.537,76.617],[-87.599,76.541],[-87.416,76.348],[-88.351,76.385],[-88.519,76.816],[-88.704,76.71],[-88.496,76.552],[-88.608,76.4],[-88.734,76.594],[-88.921,76.405],[-89.213,76.43],[-89.677,76.567],[-89.412,76.68],[-89.533,76.854],[-88.426,77.121],[-86.614,77.181],[-87.211,77.205],[-86.911,77.26],[-87.249,77.303],[-86.852,77.361],[-87.712,77.36],[-87.694,77.537],[-88.215,77.651],[-88.233,77.769],[-88.104,77.814],[-88.223,77.856],[-86.422,77.831],[-85.975,77.706],[-85.719,77.472],[-85.794,77.42],[-85.504,77.475],[-84.529,77.296],[-84.55,77.401],[-83.465,77.348],[-83.836,77.455],[-83.18,77.592],[-82.548,77.916],[-82.592,78.017],[-82.319,78.071],[-82.78,78.015],[-82.736,77.924],[-83.873,77.493],[-84.859,77.543],[-84.49,77.746],[-84.952,77.601],[-85.299,77.661],[-85.349,77.729],[-84.955,77.836],[-85.39,77.842],[-84.314,77.892],[-85.679,77.929],[-84.288,78.076],[-84.882,78.059],[-85.094,78.097],[-85.034,78.172],[-84.026,78.176],[-84.974,78.209],[-84.573,78.351],[-84.867,78.369],[-84.619,78.588],[-85.508,78.099],[-86.288,78.076],[-85.833,78.38],[-86.737,78.118],[-87.529,78.132],[-87.087,78.206],[-87.513,78.225],[-87.517,78.426],[-86.858,78.548],[-87.122,78.587],[-86.639,78.799],[-85.064,78.919],[-83.747,78.837],[-82.308,78.569],[-82.594,78.703],[-82.232,78.736],[-83.255,78.835],[-81.713,78.84],[-81.699,78.974],[-81.487,79.052],[-82.503,78.883],[-84.767,79.037],[-84.529,79.143],[-83.359,79.051],[-83.995,79.133],[-83.957,79.222],[-84.327,79.189],[-84.485,79.406],[-85.05,79.622],[-86.486,79.764],[-86.367,79.963],[-85.255,79.921],[-86.483,80.009],[-86.659,80.128],[-86.515,80.299],[-83.782,80.246],[-82.153,79.859],[-81.671,79.687],[-81.619,79.618],[-81.785,79.615],[-81.707,79.587],[-79.905,79.647],[-81.525,79.714],[-81.663,79.903],[-81.4,79.938],[-82.168,80.014],[-83.204,80.318],[-78.064,80.565],[-79.96,80.615],[-76.512,80.854],[-78.935,80.876],[-78.929,80.991],[-78.464,81.161],[-76.778,81.444],[-78.228,81.292],[-78.817,81.106],[-79.502,81.194],[-79.089,81.095],[-79.344,80.998],[-79.165,80.967],[-79.265,80.924],[-80.919,80.656],[-83.097,80.542],[-83.078,80.645],[-81.759,80.813],[-83.357,80.686],[-83.569,80.739],[-83.257,80.839],[-83.864,80.757],[-83.72,80.637],[-83.841,80.546],[-85.067,80.505],[-85.864,80.536],[-85.565,80.619],[-86.081,80.528],[-86.739,80.597],[-85.774,80.949],[-82.364,81.179],[-85.609,81.054],[-87.458,80.628],[-89.462,80.919],[-86.672,81.005],[-84.746,81.289],[-89.629,81.009],[-90.352,81.167],[-88.944,81.244],[-89.952,81.329],[-88.716,81.513],[-87.245,81.49],[-88.306,81.581],[-90.443,81.367],[-90.857,81.444],[-89.586,81.621],[-90.297,81.699],[-91.446,81.524],[-91.957,81.659],[-90.338,81.893],[-89.333,81.806],[-89.147,81.891],[-89.398,81.931],[-88.076,82.105],[-86.768,81.89],[-87.13,81.968],[-86.792,82.058],[-85.423,81.857],[-85.732,81.983],[-85.559,82.002],[-84.635,81.886],[-84.933,82.019],[-86.876,82.202],[-85.371,82.28],[-85.912,82.436],[-85.047,82.482],[-83.516,82.317],[-82.977,82.138],[-83.112,82.065],[-81.878,82.036],[-82.677,82.108],[-83.029,82.277],[-82.654,82.282],[-79.229,81.816],[-79.853,82.019],[-82.729,82.408],[-82.498,82.506],[-81.476,82.499],[-82.344,82.595],[-81.972,82.666],[-80.582,82.543],[-81.509,82.765],[-81.411,82.828],[-80.381,82.789],[-79.862,82.644],[-78.521,82.677],[-80.393,82.876],[-79.458,82.974],[-78.144,82.823],[-77.813,82.924],[-77.128,82.863],[-75.892,82.592],[-76.231,82.445],[-75.396,82.615],[-76.236,82.712],[-75.976,82.785],[-77.345,82.972],[-77.184,83.034],[-74.436,83.027],[-72.634,82.694],[-73.651,82.926],[-72.651,83.096],[-71.612,83.096],[-71.778,83.002],[-70.871,82.881],[-71.497,83.007],[-70.804,83.105],[-67.544,82.962]]],[[[-110.02,72.442],[-109.783,72.429],[-110.02,72.494],[-109.795,72.494],[-110.019,72.712],[-109.77,72.722],[-110.019,72.75],[-110.018,72.975],[-109.112,72.74],[-108.937,72.667],[-109.043,72.567],[-108.621,72.55],[-108.663,72.346],[-108.536,72.142],[-108.404,72.147],[-108.333,71.926],[-108.187,71.956],[-108.295,71.876],[-108.165,71.755],[-108.238,71.714],[-107.845,71.604],[-107.724,71.624],[-107.804,71.727],[-107.252,71.804],[-107.471,71.871],[-107.257,71.9],[-107.779,72.137],[-107.864,72.298],[-107.714,72.301],[-107.878,72.424],[-107.781,72.456],[-107.981,72.511],[-107.877,72.567],[-108.3,73.136],[-107.864,73.189],[-108.144,73.307],[-107.07,73.174],[-107.084,73.283],[-106.861,73.311],[-105.856,73.057],[-105.364,72.785],[-105.51,72.777],[-104.957,72.181],[-105.019,72.067],[-104.355,71.574],[-104.278,71.351],[-104.471,71.351],[-104.449,71.219],[-104.649,71.119],[-103.556,70.601],[-102.931,70.491],[-103.126,70.574],[-103.067,70.67],[-102.195,70.324],[-101.589,70.272],[-101.552,70.109],[-100.973,70.156],[-100.878,69.772],[-100.957,69.662],[-101.33,69.67],[-101.445,69.909],[-101.673,69.646],[-102.23,69.917],[-102.35,69.756],[-102.681,69.76],[-102.484,69.692],[-102.508,69.564],[-103.487,69.685],[-103.128,69.432],[-103.023,69.494],[-103.023,69.272],[-103.209,69.123],[-102.46,69.482],[-102.058,69.484],[-101.931,69.407],[-102.217,69.225],[-101.752,69.161],[-101.809,68.998],[-102.895,68.8],[-104.265,68.942],[-105.129,68.896],[-105.274,68.949],[-104.923,69.075],[-106.406,69.181],[-106.268,69.292],[-106.31,69.404],[-106.602,69.499],[-106.985,69.346],[-106.929,69.217],[-107.304,69.032],[-108.534,68.945],[-108.938,68.741],[-111.379,68.584],[-111.238,68.514],[-113.309,68.467],[-113.044,68.504],[-113.677,68.811],[-113.545,69.048],[-113.692,69.189],[-113.521,69.179],[-116.526,69.407],[-116.63,69.459],[-116.581,69.561],[-116.91,69.59],[-116.514,69.635],[-117.118,69.892],[-117.085,69.999],[-112.887,69.991],[-112.862,69.84],[-112.658,69.835],[-112.485,69.994],[-110.029,69.995],[-110.02,72.442]]],[[[-96.742,76.982],[-95.735,77.069],[-93.658,76.91],[-93.18,76.741],[-93.307,76.547],[-93.652,76.442],[-93.548,76.386],[-93.109,76.616],[-90.986,76.649],[-90.468,76.473],[-91.416,76.46],[-89.192,76.242],[-90.454,76.171],[-90.111,76.124],[-91.614,76.262],[-91.258,76.204],[-91.386,76.142],[-90.68,76.117],[-90.849,76.061],[-90.191,76.061],[-91.161,76.018],[-90.938,76.0],[-91.13,75.839],[-90.794,75.995],[-90.433,75.97],[-90.505,75.895],[-90,76.01],[-89.688,75.9],[-89.775,75.787],[-89.164,75.775],[-89.254,75.631],[-89.765,75.576],[-89.217,75.585],[-88.964,75.432],[-88.78,75.432],[-88.902,75.605],[-88.739,75.679],[-88.263,75.476],[-87.749,75.578],[-87.534,75.446],[-87.416,75.485],[-87.513,75.559],[-87.251,75.621],[-86.376,75.427],[-86.597,75.362],[-85.527,75.401],[-86.143,75.508],[-84.497,75.632],[-84.664,75.686],[-84.003,75.821],[-81.118,75.776],[-81.271,75.651],[-79.954,75.54],[-80.373,75.463],[-79.586,75.455],[-79.683,75.431],[-79.489,75.362],[-79.612,75.298],[-79.442,75.277],[-79.629,75.175],[-80.441,75.038],[-80.266,74.947],[-79.614,75.02],[-79.336,74.889],[-79.931,74.813],[-80.322,74.938],[-80.416,74.889],[-80.098,74.82],[-80.247,74.757],[-80.13,74.716],[-80.248,74.576],[-81.811,74.457],[-82.914,74.549],[-83.124,74.685],[-83.082,74.818],[-83.528,74.902],[-83.319,74.767],[-83.612,74.541],[-84.899,74.503],[-84.991,74.698],[-85.044,74.523],[-85.259,74.491],[-85.527,74.689],[-85.48,74.537],[-85.581,74.498],[-86.121,74.482],[-86.197,74.615],[-86.423,74.479],[-86.785,74.617],[-86.604,74.468],[-88.535,74.504],[-88.432,74.762],[-88.293,74.772],[-88.548,74.908],[-88.836,74.661],[-89.089,74.837],[-89.048,74.722],[-89.271,74.755],[-89.096,74.688],[-89.185,74.587],[-89.929,74.531],[-91.025,74.703],[-90.772,74.885],[-91.226,74.734],[-91.107,74.626],[-91.676,74.672],[-92.066,74.813],[-92.015,74.914],[-92.229,75.071],[-92.051,75.147],[-92.504,75.218],[-92.329,75.369],[-92.459,75.369],[-92.403,75.436],[-92.005,75.595],[-92.174,75.744],[-92.109,75.859],[-92.629,76.009],[-93.061,76.345],[-95.387,76.236],[-94.814,76.329],[-95.996,76.437],[-96.066,76.521],[-95.588,76.604],[-96.017,76.549],[-96.947,76.724],[-96.855,76.813],[-96.306,76.754],[-96.814,76.868],[-96.659,76.949],[-96.742,76.982]]],[[[-86.41,64.583],[-86.172,64.823],[-86.225,65.004],[-86.014,65.709],[-85.543,65.933],[-85.493,65.795],[-85.156,65.777],[-85.052,65.607],[-85.312,65.538],[-85.015,65.418],[-84.925,65.21],[-84.562,65.481],[-84.151,65.339],[-84.231,65.269],[-84.141,65.22],[-83.409,65.136],[-83.208,64.946],[-82.092,64.685],[-81.763,64.501],[-81.777,64.312],[-81.6,64.203],[-81.987,63.994],[-81.389,64.097],[-80.932,63.992],[-80.935,64.13],[-80.523,63.979],[-80.664,63.883],[-80.172,63.771],[-81.076,63.451],[-82.472,63.68],[-82.547,63.765],[-82.361,63.905],[-83.087,63.955],[-83.02,64.189],[-83.548,64.102],[-83.682,64.007],[-83.637,63.766],[-84.283,63.629],[-84.586,63.308],[-85.493,63.12],[-85.638,63.245],[-85.591,63.617],[-85.711,63.767],[-86.879,63.556],[-87.217,63.622],[-86.934,63.906],[-86.189,64.102],[-86.41,64.583]]],[[[-94.342,81.11],[-93.123,81.115],[-93.223,81.211],[-94.382,81.251],[-94.154,81.36],[-92.148,81.236],[-91.122,80.755],[-90.665,80.685],[-90.593,80.641],[-90.766,80.566],[-89.245,80.517],[-89.059,80.461],[-89.257,80.397],[-89.076,80.393],[-89.251,80.278],[-88.535,80.099],[-88.146,80.094],[-88.704,80.284],[-88.649,80.394],[-87.684,80.41],[-87.563,80.179],[-88.066,80.121],[-87.037,79.962],[-87.489,79.841],[-86.958,79.904],[-87.134,79.645],[-87.463,79.535],[-86.334,79.646],[-86.046,79.569],[-86.138,79.519],[-86.028,79.475],[-86.168,79.458],[-86.071,79.434],[-85.682,79.613],[-84.904,79.268],[-86.702,78.955],[-86.983,79.057],[-86.952,78.907],[-87.616,78.645],[-88.003,78.807],[-87.97,78.966],[-87.746,79.086],[-88.202,78.976],[-88.13,78.685],[-88.352,78.653],[-87.908,78.549],[-88.234,78.454],[-88.804,78.61],[-88.536,78.413],[-88.818,78.154],[-90,78.61],[-90.101,78.55],[-89.985,78.436],[-89.452,78.162],[-90.186,78.333],[-90.744,78.323],[-90.325,78.272],[-90.273,78.177],[-90.465,78.135],[-92.083,78.212],[-92.979,78.483],[-91.658,78.564],[-93.271,78.584],[-93.814,78.766],[-93.038,78.766],[-94.282,78.969],[-93.33,79.164],[-90.363,79.247],[-92.447,79.223],[-92.604,79.301],[-91.129,79.391],[-92.181,79.346],[-92.572,79.371],[-92.259,79.447],[-93.091,79.482],[-93.021,79.383],[-93.374,79.337],[-93.23,79.426],[-93.338,79.447],[-93.87,79.264],[-94.212,79.277],[-93.839,79.393],[-94.386,79.421],[-95.235,79.286],[-95.319,79.332],[-95.164,79.345],[-95.282,79.4],[-95.772,79.41],[-95.672,79.439],[-95.736,79.537],[-94.699,79.612],[-94.318,79.779],[-95.853,79.646],[-96.589,79.852],[-96.138,79.906],[-96.607,79.962],[-96.392,80.046],[-96.803,80.091],[-94.417,79.979],[-94.804,80.093],[-94.12,80.183],[-95.368,80.118],[-95.696,80.178],[-95.243,80.244],[-95.934,80.194],[-96.682,80.342],[-95.441,80.338],[-96.098,80.488],[-95.934,80.509],[-95.98,80.585],[-93.786,80.526],[-94.66,80.651],[-94.108,80.719],[-95.534,80.819],[-94.905,81.057],[-93.936,81.018],[-94.342,81.11]]],[[[-101.086,73.326],[-101.621,73.49],[-100.89,73.596],[-100.415,73.418],[-100.606,73.497],[-100.552,73.599],[-101.118,73.723],[-100.648,73.848],[-100.027,73.73],[-99.843,73.878],[-100.249,73.834],[-100.143,73.931],[-99.801,73.932],[-99.189,73.685],[-97.9,73.896],[-97.224,73.856],[-96.962,73.739],[-96.969,73.633],[-97.668,73.483],[-97.183,73.465],[-97.172,73.353],[-97.841,73.273],[-98.51,73.009],[-98.446,72.866],[-97.847,73.049],[-97.283,72.964],[-97.415,72.86],[-97.03,72.717],[-97.197,72.604],[-96.537,72.75],[-96.298,72.416],[-96.872,72.321],[-96.533,72.237],[-96.498,72.09],[-96.867,72.041],[-96.489,72.035],[-96.764,71.915],[-96.492,71.926],[-96.571,71.819],[-97.505,71.612],[-98.207,71.646],[-98.36,71.728],[-98.267,71.904],[-98.494,71.714],[-98.038,71.527],[-98.198,71.415],[-98.73,71.271],[-99.238,71.345],[-99.369,71.576],[-100.634,72.186],[-100.951,72.171],[-101.221,72.332],[-101.777,72.3],[-101.912,72.472],[-102.742,72.724],[-102.501,73.031],[-101.962,73.089],[-101.294,72.79],[-101.367,72.725],[-100.448,72.736],[-100.324,72.839],[-100.499,72.951],[-100.422,73.035],[-100.256,72.954],[-100.326,72.878],[-100.031,72.935],[-100.324,73.094],[-100.232,73.134],[-100.524,73.09],[-100.545,73.228],[-99.772,73.208],[-100.374,73.396],[-100.336,73.325],[-100.584,73.284],[-101.086,73.326]]]]}},{"type":"Feature","properties":{"name":"Northwest Territories"},"geometry":{"type":"MultiPolygon","coordinates":[[[[-102.002,60.0],[-124.029,60.023],[-124.206,60.457],[-124.614,60.669],[-124.477,60.791],[-124.579,60.953],[-125.37,60.783],[-125.887,60.897],[-126.826,60.755],[-126.935,61.059],[-127.102,61.071],[-127.007,61.185],[-127.142,61.467],[-127.973,61.689],[-128.547,62.122],[-129.294,62.156],[-129.199,62.217],[-129.308,62.421],[-129.172,62.482],[-129.568,62.574],[-129.517,62.672],[-129.774,62.874],[-129.599,63.052],[-130.151,63.266],[-129.82,63.483],[-130.11,63.704],[-130.321,63.696],[-130.12,63.808],[-130.864,64.043],[-130.948,64.137],[-130.867,64.188],[-131.142,64.424],[-131.818,64.378],[-131.703,64.536],[-132.622,64.827],[-132.333,65.035],[-132.781,65.23],[-132.174,65.591],[-132.573,65.849],[-132.343,65.982],[-133.629,65.974],[-133.705,66.072],[-133.57,66.278],[-133.825,66.317],[-133.587,66.565],[-133.84,66.728],[-133.764,66.807],[-134.092,66.955],[-133.831,67.003],[-136.165,67.004],[-136.158,67.508],[-136.445,67.716],[-136.446,68.873],[-135.16,68.657],[-135.506,68.832],[-135.338,68.835],[-135.624,68.886],[-134.846,68.929],[-134.219,68.693],[-134.629,69.009],[-134.154,69.259],[-133.047,69.433],[-132.894,69.654],[-132.417,69.636],[-132.622,69.68],[-132.259,69.772],[-132.481,69.732],[-132.134,69.687],[-131.41,69.957],[-131.185,69.824],[-130.892,70.099],[-130.472,70.174],[-129.894,70.078],[-129.673,70.267],[-129.405,70.123],[-129.497,70.021],[-130.522,69.782],[-130.929,69.563],[-131.04,69.641],[-132.006,69.527],[-132.495,69.159],[-132.546,69.283],[-132.838,69.217],[-132.888,68.98],[-133.099,69.067],[-133.485,68.85],[-132.918,68.69],[-133.38,68.845],[-132.492,68.801],[-132.397,68.865],[-132.553,68.916],[-132.787,68.847],[-132.705,68.881],[-132.833,68.924],[-132.676,68.927],[-132.865,69.068],[-132.425,69.234],[-132.467,69.107],[-132.321,69.234],[-132.223,69.142],[-131.714,69.398],[-131.97,69.406],[-131.416,69.436],[-131.526,69.329],[-131.322,69.493],[-131.242,69.406],[-131.246,69.498],[-131.213,69.387],[-131.415,69.297],[-131.161,69.389],[-131.248,69.583],[-131.114,69.513],[-131.128,69.362],[-131.062,69.51],[-131.196,69.59],[-131.094,69.609],[-131.116,69.322],[-130.946,69.539],[-131.048,69.336],[-130.898,69.386],[-131.025,69.21],[-130.923,69.135],[-130.942,69.271],[-130.365,69.694],[-128.9,69.972],[-128.934,69.844],[-129.169,69.825],[-129.15,69.696],[-128.977,69.675],[-128.324,69.948],[-128.343,70.117],[-127.515,70.222],[-128.193,70.387],[-127.997,70.591],[-127.174,70.272],[-126.774,69.974],[-126.706,69.766],[-126.256,69.527],[-125.426,69.312],[-125.457,69.41],[-125.089,69.45],[-125.622,69.419],[-125.118,69.486],[-125.437,69.609],[-125.366,69.69],[-124.822,69.715],[-125.276,69.808],[-124.63,69.979],[-125.188,70.009],[-124.436,70.036],[-124.68,70.15],[-124.386,70.145],[-124.377,70.023],[-124.538,69.964],[-124.403,69.858],[-124.501,69.726],[-124.035,69.679],[-124.447,69.367],[-123.381,69.411],[-123.4,69.49],[-123.169,69.495],[-123.152,69.768],[-122.959,69.834],[-120.881,69.639],[-120.665,69.551],[-120.658,68.001],[-112.499,65.506],[-110.652,65.5],[-109.387,64.827],[-101.984,64.213],[-102.002,60.0]]],[[[-117.431,69.995],[-114.543,70.313],[-112.565,70.198],[-111.443,70.29],[-112.169,70.497],[-113.938,70.715],[-115.581,70.573],[-117.544,70.595],[-118.31,70.897],[-118.415,70.998],[-117.85,71.157],[-115.058,71.523],[-117.377,71.383],[-117.563,71.5],[-117.539,71.373],[-118.112,71.374],[-118.29,71.482],[-117.766,71.523],[-117.656,71.572],[-117.967,71.626],[-117.701,71.671],[-119.05,71.627],[-119.088,71.908],[-118.589,72.176],[-118.113,72.232],[-118.145,72.327],[-118.491,72.353],[-118.537,72.494],[-117.354,72.916],[-114.562,73.376],[-113.954,73.126],[-114.051,72.96],[-113.969,72.813],[-114.351,72.747],[-114.249,72.689],[-114.558,72.561],[-113.443,72.672],[-113.599,72.783],[-113.007,73.009],[-111.226,72.723],[-111.277,72.567],[-111.906,72.35],[-111.643,72.348],[-111.763,72.199],[-111.35,72.453],[-111.202,72.46],[-111.364,72.342],[-111.033,72.282],[-111.091,72.402],[-110.701,72.576],[-110.02,72.442],[-110.029,69.995],[-112.485,69.994],[-112.658,69.835],[-112.862,69.84],[-112.887,69.991],[-117.085,69.999],[-117.118,69.892],[-116.514,69.635],[-117.247,69.757],[-117.431,69.995]]],[[[-119.745,74.026],[-119.465,74.221],[-119.121,74.2],[-119.168,73.987],[-118.674,74.22],[-117.439,74.229],[-115.614,73.668],[-115.323,73.474],[-119.137,72.632],[-119.311,72.352],[-119.801,72.221],[-120.251,72.259],[-120.145,72.144],[-120.449,71.947],[-120.377,71.688],[-120.543,71.517],[-121.429,71.378],[-121.744,71.453],[-123.095,71.08],[-123.949,71.658],[-125.236,71.942],[-125,71.971],[-125.998,71.974],[-125.779,71.986],[-125.788,72.118],[-125.566,72.179],[-125.657,72.251],[-125.437,72.409],[-124.948,72.571],[-125.098,72.631],[-124.941,72.702],[-125.114,72.862],[-124.476,72.927],[-124.869,73.081],[-123.775,73.764],[-124.217,73.873],[-124.516,74.25],[-124.771,74.34],[-121.519,74.549],[-119.525,74.23],[-119.824,74.095],[-119.745,74.026]]],[[[-110.008,74.833],[-110.665,74.788],[-110.596,74.708],[-111.677,74.493],[-113.472,74.419],[-114.394,74.708],[-112.868,74.976],[-111.551,75.011],[-110.921,75.224],[-111.068,75.272],[-112.41,75.124],[-112.339,75.224],[-112.592,75.182],[-112.679,75.278],[-112.807,75.116],[-113.941,75.057],[-113.647,75.184],[-113.929,75.174],[-113.806,75.327],[-113.319,75.418],[-113.902,75.374],[-114.065,75.466],[-114.171,75.227],[-114.615,75.275],[-114.297,75.179],[-114.395,75.091],[-115.195,74.99],[-115.257,75.18],[-115.674,75.138],[-115.537,75.027],[-115.691,74.964],[-116.254,75.058],[-116.042,75.123],[-116.321,75.103],[-116.239,75.201],[-116.694,75.117],[-117.684,75.253],[-117.219,75.476],[-115.991,75.486],[-114.998,75.696],[-117.25,75.586],[-116.816,75.796],[-114.799,75.892],[-116.727,75.951],[-116.462,75.975],[-116.706,76.039],[-116.641,76.113],[-116.164,76.197],[-114.681,76.165],[-115.922,76.281],[-115.5,76.455],[-114.702,76.515],[-114.118,76.435],[-114.178,76.345],[-113.983,76.19],[-112.999,76.267],[-112.425,76.168],[-112.528,76.104],[-112.413,76.042],[-111.728,75.922],[-112.226,75.811],[-111.452,75.837],[-111.592,75.807],[-111.355,75.724],[-111.407,75.615],[-111.271,75.522],[-110.004,75.533],[-110.008,74.833]]]]}},{"type":"Feature","properties":{"name":"New Brunswick"},"geometry":{"type":"MultiPolygon","coordinates":[[[[-69.04,47.297],[-68.38,47.559],[-68.373,47.925],[-68.116,48.002],[-67.612,47.997],[-67.364,47.841],[-66.357,48.073],[-65.794,47.891],[-65.635,47.621],[-65.241,47.807],[-64.824,47.811],[-64.677,47.736],[-64.894,47.557],[-64.91,47.353],[-65.37,47.087],[-64.799,47.08],[-64.905,46.851],[-64.854,46.672],[-64.711,46.68],[-64.612,46.41],[-64.702,46.327],[-64.552,46.363],[-64.559,46.22],[-63.776,46.121],[-64.068,46.059],[-64.482,45.723],[-64.754,46.089],[-64.574,45.863],[-64.642,45.717],[-65.74,45.245],[-66.126,45.304],[-66.003,45.462],[-66.193,45.334],[-66.058,45.258],[-66.441,45.073],[-66.88,45.057],[-66.949,45.187],[-67.033,45.089],[-67.183,45.245],[-67.151,45.122],[-67.346,45.122],[-67.479,45.28],[-67.44,45.592],[-67.804,45.678],[-67.792,47.061],[-68.231,47.352],[-68.895,47.182],[-69.04,47.297]]]]}},{"type":"Feature","properties":{"name":"Nova Scotia"},"geometry":{"type":"MultiPolygon","coordinates":[[[[-64.043,45.992],[-63.664,45.815],[-63.235,45.809],[-63.38,45.766],[-63.294,45.722],[-62.673,45.768],[-62.744,45.611],[-62.486,45.604],[-61.917,45.886],[-61.881,45.687],[-61.471,45.682],[-61.229,45.502],[-61.457,45.344],[-60.97,45.27],[-61.696,45.178],[-61.642,45.084],[-62.84,44.711],[-63.056,44.773],[-63.055,44.673],[-63.119,44.787],[-63.44,44.591],[-63.658,44.715],[-63.52,44.508],[-63.631,44.436],[-63.932,44.513],[-63.887,44.691],[-64.059,44.638],[-64.083,44.467],[-64.302,44.561],[-64.356,44.443],[-64.211,44.362],[-64.346,44.357],[-64.239,44.294],[-64.431,44.338],[-64.364,44.257],[-64.604,44.157],[-64.556,44.077],[-64.716,44.052],[-64.835,43.825],[-64.966,43.873],[-65.125,43.671],[-65.332,43.769],[-65.339,43.549],[-65.45,43.6],[-65.481,43.464],[-65.569,43.57],[-65.726,43.502],[-65.861,43.804],[-66.123,43.741],[-66.212,44.095],[-65.841,44.574],[-66.191,44.383],[-66.103,44.5],[-64.434,45.258],[-64.489,45.335],[-64.327,45.303],[-64.386,45.146],[-64.156,44.978],[-64.153,45.193],[-63.361,45.361],[-64.937,45.327],[-64.043,45.992]]],[[[-60.596,46.196],[-61.113,45.955],[-60.734,46.047],[-61.066,45.894],[-60.918,45.847],[-61.143,45.696],[-60.734,45.674],[-60.396,45.996],[-60.785,45.946],[-60.305,46.211],[-60.656,46.068],[-60.348,46.311],[-60.203,46.235],[-60.289,46.155],[-60.132,46.249],[-59.811,46.163],[-59.96,46.021],[-59.819,45.929],[-60.673,45.564],[-60.871,45.64],[-61.285,45.542],[-61.455,45.706],[-61.548,46.026],[-60.592,47.033],[-60.398,47.023],[-60.498,46.897],[-60.302,46.837],[-60.596,46.196]]]]}},{"type":"Feature","properties":{"name":"Saskatchewan"},"geometry":{"type":"MultiPolygon","coordinates":[[[[-102.002,60.0],[-102.001,55.83],[-101.367,49],[-110.001,49],[-110.001,59.995],[-102.002,60.0]]]]}},{"type":"Feature","properties":{"name":"Alberta"},"geometry":{"type":"MultiPolygon","coordinates":[[[[-114.06,49],[-114.738,49.609],[-114.636,49.728],[-114.659,50.065],[-115.017,50.575],[-115.219,50.547],[-115.647,50.855],[-115.619,50.969],[-116.262,51.317],[-116.659,51.797],[-116.919,51.709],[-117.319,52.182],[-117.76,52.201],[-117.755,52.404],[-118.006,52.488],[-118.223,52.366],[-118.346,52.743],[-118.625,52.884],[-118.76,53.125],[-118.979,53.237],[-119.046,53.138],[-119.266,53.197],[-119.386,53.362],[-119.902,53.52],[-119.932,53.607],[-119.735,53.635],[-120.001,53.808],[-119.983,59.989],[-110.001,59.995],[-110.001,49],[-114.06,49]]]]}},{"type":"Feature","properties":{"name":"Prince Edward Island"},"geometry":{"type":"MultiPolygon","coordinates":[[[[-63.989,46.394],[-64.135,46.416],[-64.071,46.636],[-64.417,46.681],[-63.999,47.062],[-63.967,46.892],[-64.092,46.779],[-63.833,46.617],[-63.938,46.477],[-63.709,46.437],[-63.647,46.567],[-63.239,46.4],[-61.971,46.457],[-62.585,46.232],[-62.447,46.091],[-62.574,46.035],[-62.459,46.006],[-62.747,45.948],[-63.031,46.061],[-62.885,46.156],[-63.122,46.212],[-62.963,46.32],[-63.262,46.138],[-63.699,46.249],[-63.813,46.332],[-63.745,46.395],[-63.989,46.394]]]]}},{"type":"Feature","properties":{"name":"Yukon Territory"},"geometry":{"type":"MultiPolygon","coordinates":[[[[-123.817,59.995],[-138.939,59.998],[-139.189,60.089],[-139.068,60.352],[-139.677,60.341],[-139.979,60.188],[-140.995,60.307],[-141.003,69.642],[-139.143,69.511],[-138.601,69.237],[-138.378,69.305],[-137.255,68.948],[-136.42,68.901],[-136.445,67.716],[-136.158,67.508],[-136.165,67.004],[-133.831,67.003],[-134.092,66.955],[-133.764,66.807],[-133.84,66.728],[-133.587,66.565],[-133.825,66.317],[-133.57,66.278],[-133.705,66.072],[-133.629,65.974],[-132.343,65.982],[-132.573,65.849],[-132.174,65.591],[-132.781,65.23],[-132.333,65.035],[-132.622,64.827],[-131.703,64.536],[-131.818,64.378],[-131.142,64.424],[-130.867,64.188],[-130.948,64.137],[-130.864,64.043],[-130.12,63.808],[-130.321,63.696],[-130.11,63.704],[-129.82,63.483],[-130.151,63.266],[-129.599,63.052],[-129.774,62.874],[-129.517,62.672],[-129.568,62.574],[-129.172,62.482],[-129.308,62.421],[-129.199,62.217],[-129.294,62.156],[-128.547,62.122],[-127.973,61.689],[-127.142,61.467],[-127.007,61.185],[-127.102,61.071],[-126.935,61.059],[-126.826,60.755],[-125.887,60.897],[-125.37,60.783],[-124.579,60.953],[-124.477,60.791],[-124.614,60.669],[-124.206,60.457],[-124.029,60.023],[-123.817,59.995]]]]}},{"type":"Feature","properties":{"name":"Manitoba"},"geometry":{"type":"MultiPolygon","coordinates":[[[[-102.002,60.0],[-94.8,60.0],[-94.819,59.636],[-94.659,59.351],[-94.795,59.087],[-94.996,59.054],[-94.804,59.061],[-94.68,58.971],[-94.745,58.833],[-94.586,58.875],[-94.422,58.716],[-94.203,58.804],[-94.363,58.219],[-94.177,58.771],[-93.152,58.738],[-92.781,57.835],[-92.419,57.337],[-92.576,57.057],[-92.876,56.907],[-91.002,57.261],[-89.18,56.869],[-89.306,56.627],[-95.15,52.826],[-95.158,49],[-101.367,49],[-102.001,55.83],[-102.002,60.0]]]]}},{"type":"Feature","properties":{"name":"Ontario"},"geometry":{"type":"MultiPolygon","coordinates":[[[[-79.538,50.959],[-79.576,47.442],[-78.951,46.512],[-78.704,46.337],[-77.555,46.152],[-77.003,45.79],[-76.805,45.865],[-76.666,45.591],[-76.338,45.456],[-76.077,45.514],[-75.847,45.372],[-74.646,45.636],[-74.397,45.564],[-74.479,45.317],[-74.325,45.201],[-75.329,44.811],[-75.977,44.384],[-76.984,44.071],[-76.887,44.177],[-77.047,44.129],[-77.011,44.211],[-77.557,44.121],[-77.077,44.179],[-77.128,44.034],[-76.847,44.118],[-77.042,43.948],[-76.848,43.943],[-77.134,43.856],[-77.233,43.88],[-77.17,43.954],[-77.704,44.041],[-79.092,43.826],[-79.588,43.565],[-79.776,43.32],[-79.345,43.188],[-79.074,43.267],[-78.925,42.91],[-80.204,42.79],[-80.451,42.612],[-80.114,42.541],[-81.333,42.651],[-81.856,42.256],[-82.388,42.124],[-82.506,41.913],[-82.628,42.035],[-83.124,42.07],[-83.03,42.313],[-82.427,42.354],[-82.419,42.498],[-82.638,42.547],[-82.472,42.899],[-81.746,43.346],[-81.745,44.084],[-81.268,44.617],[-81.35,44.973],[-81.695,45.265],[-81.284,45.249],[-81.15,44.911],[-80.949,44.964],[-81.133,44.758],[-80.893,44.791],[-80.942,44.595],[-80.65,44.726],[-80.09,44.468],[-79.988,44.683],[-80.104,44.82],[-79.66,44.752],[-79.683,44.879],[-79.784,44.818],[-80.1,45.123],[-79.989,45.148],[-80.129,45.237],[-80.059,45.383],[-80.35,45.383],[-80.4,45.607],[-80.501,45.569],[-80.748,45.921],[-81.155,45.926],[-81.169,46.018],[-81.67,45.946],[-81.504,46.042],[-81.704,46.019],[-81.543,46.06],[-81.621,46.123],[-81.761,46.013],[-81.714,46.104],[-82.322,46.19],[-84.05,46.326],[-84.173,46.552],[-84.517,46.482],[-84.59,46.566],[-84.422,46.696],[-84.548,46.699],[-84.544,46.825],[-84.351,46.883],[-84.778,46.982],[-84.579,47.289],[-85.028,47.611],[-84.844,47.949],[-85.86,47.985],[-86.435,48.777],[-87.29,48.767],[-88.261,48.993],[-88.105,48.787],[-88.204,48.607],[-88.332,48.657],[-88.56,48.43],[-88.314,48.761],[-88.48,48.854],[-88.74,48.37],[-88.939,48.314],[-88.759,48.581],[-89.139,48.484],[-89.338,48.116],[-89.9,47.993],[-90.145,48.113],[-90.743,48.089],[-90.864,48.254],[-91.571,48.044],[-92.035,48.356],[-92.276,48.352],[-92.37,48.221],[-92.497,48.44],[-92.947,48.628],[-93.781,48.512],[-93.844,48.625],[-94.57,48.714],[-94.694,48.778],[-94.832,49.331],[-95.152,49.372],[-95.15,52.826],[-89.306,56.627],[-89.18,56.869],[-88.879,56.858],[-87.976,56.437],[-87.616,56.003],[-85.944,55.698],[-85.129,55.346],[-85.424,54.991],[-85.002,55.297],[-83.92,55.319],[-83.562,55.131],[-83.699,55.283],[-82.319,55.064],[-82.341,55.165],[-82.195,54.845],[-82.434,54.209],[-82.13,53.799],[-82.217,53.604],[-82.115,53.274],[-82.251,53.212],[-82.302,52.961],[-81.478,52.302],[-81.884,52.187],[-81.502,52.233],[-80.599,51.713],[-80.424,51.364],[-81.015,51.028],[-80.392,51.339],[-79.996,51.255],[-79.538,50.959]]]]}}]}